NOAA 18 [B]             
1 28654U 05018A   22280.17679421  .00000267  00000+0  16764-3 0  9991
2 28654  98.9396 350.4747 0014412  19.9789 340.1944 14.12785734895847
NOAA 19 [+]             
1 33591U 09005A   22280.11992529  .00000249  00000+0  15974-3 0  9990
2 33591  99.1384 316.5538 0013175 231.8943 128.1041 14.12618317704210
SUOMI NPP [+]           
1 37849U 11061A   22280.12041821  .00000120  00000+0  77843-4 0  9998
2 37849  98.7391 217.1506 0001054  78.7270 292.6094 14.19548649567026
NOAA 20 [+]             
1 43013U 17073A   22280.15272303  .00000137  00000+0  85693-4 0  9991
2 43013  98.7230 216.9858 0001663  89.1563 270.9804 14.19548056253079
CELESTIS-02             
1 25160U 98007D   22279.50598713  .00000071  00000+0  89546-4 0  9991
2 25160 107.9882 130.3925 0064418 279.9695 144.5437 14.21650271278648
CELESTIS-03             
1 26034U 99070C   22279.79497374  .00038510  00000+0  16604-2 0  9997
2 26034  98.3108 297.1024 0011430 107.6871 252.5611 15.22394413237996
O3B FM5                 
1 39188U 13031A   22279.61634724 -.00000027  00000+0  00000+0 0  9990
2 39188   0.0637  17.0032 0002644 182.4944 160.4951  5.00115275169523
O3B FM4                 
1 39189U 13031B   22279.47246365 -.00000027  00000+0  00000+0 0  9995
2 39189   0.0510 352.0363 0002598 206.8502 161.1066  5.00115794169534
O3B FM2                 
1 39190U 13031C   22279.76376107 -.00000027  00000+0  00000+0 0  9997
2 39190   0.0510 346.3241 0002616 212.2070 161.4621  5.00115121169599
O3B PFM                 
1 39191U 13031D   22279.19040006 -.00000026  00000+0  00000+0 0  9990
2 39191   0.0572  11.1018 0002656 184.4649 164.4279  5.00115663169136
O3B FM3                 
1 40079U 14038A   22279.84485343 -.00000027  00000+0  00000+0 0  9995
2 40079   0.0538 359.8178 0004847 179.9114 180.2738  5.00115290145534
O3B FM7                 
1 40080U 14038B   22279.59103292 -.00000027  00000+0  00000+0 0  9999
2 40080   0.0560 355.8351 0001887 245.2020 118.9467  5.00115451150367
O3B FM6                 
1 40081U 14038C   22279.81730390 -.00000027  00000+0  00000+0 0  9990
2 40081   0.0529 359.3337 0002720 197.1558 163.5043  5.00115300150318
O3B FM8                 
1 40082U 14038D   22279.27154750 -.00000026  00000+0  00000+0 0  9990
2 40082   0.0509 356.6853 0002644 195.7225 167.5884  5.00115618150410
O3B FM10                
1 40348U 14083A   22279.49751394 -.00000027  00000+0  00000+0 0  9997
2 40348   0.0524   9.1471 0002642 186.6447 164.2028  5.00115076142379
O3B FM11                
1 40349U 14083B   22279.51096029 -.00000027  00000+0  00000+0 0  9998
2 40349   0.0570   7.8188 0002585 203.4601 148.7085  5.00115321142392
O3B FM12                
1 40350U 14083C   22279.13839208 -.00000026  00000+0  00000+0 0  9991
2 40350   0.0562   7.2666 0002782 190.4418 162.2848  5.00115196142387
O3B FM9                 
1 40351U 14083D   22279.76492246 -.00000027  00000+0  00000+0 0  9999
2 40351   0.0581   7.7999 0002618 189.6132 162.5807  5.00116102142559
DIAMOND RED             
1 42783U 17036U   22279.63034717  .00018008  00000+0  63628-3 0  9998
2 42783  97.1900 316.6576 0008293 298.8588  61.1820 15.29219120293921
DIAMOND GREEN           
1 42785U 17036W   22279.82735163  .00018750  00000+0  66206-3 0  9993
2 42785  97.1901 316.9119 0008074 299.3645  60.6789 15.29234674293948
DIAMOND BLUE            
1 42786U 17036X   22280.15365096  .00020845  00000+0  73533-3 0  9995
2 42786  97.1901 317.2192 0008146 298.7613  61.2809 15.29242899293995
LEO VANTAGE 1           
1 43113U 18004C   22279.76124449  .00006239  00000+0  50081-3 0  9990
2 43113  99.2429  11.6857 0399684 216.7690 140.5474 14.54236549240416
O3B FM15                
1 43231U 18024A   22279.63097318 -.00000027  00000+0  00000+0 0  9995
2 43231   0.0492  10.8479 0002954 187.1578 161.9866  5.00115977 83515
O3B FM16                
1 43232U 18024B   22279.48447728 -.00000026  00000+0  00000+0 0  9992
2 43232   0.0461  14.1314 0002933 184.3280 161.5327  5.00115819 83426
O3B FM14                
1 43233U 18024C   22279.72402696 -.00000027  00000+0  00000+0 0  9996
2 43233   0.0446  14.6174 0002785 186.3872 158.9867  5.00115253 83446
O3B FM13                
1 43234U 18024D   22278.37852118 -.00000025  00000+0  00000+0 0  9993
2 43234   0.0642  23.4951 0007487  78.6992 257.8925  5.00041593 83490
O3B FM20                
1 44112U 19020A   22279.35095052 -.00000026  00000+0  00000+0 0  9992
2 44112   0.0520   8.5781 0003131 195.3847 156.0254  5.00115381 64046
O3B FM19                
1 44113U 19020B   22278.57820303 -.00000026  00000+0  00000+0 0  9991
2 44113   0.0720  19.4643 0001589 204.6594 135.8665  5.00114724 63865
O3B FM17                
1 44114U 19020C   22279.65814546 -.00000027  00000+0  00000+0 0  9995
2 44114   0.0352 355.1280 0003072 203.2326 161.6311  5.00115526 64015
O3B FM18                
1 44115U 19020D   22279.80454754 -.00000027  00000+0  00000+0 0  9994
2 44115   0.0523   8.8051 0002890 187.2005 163.9880  5.00115712 64143
SALSAT                  
1 46495U 20068K   22279.81576414  .00004540  00000+0  32384-3 0  9997
2 46495  97.7364 221.2203 0014533 259.3410 100.6180 15.04980335110936
ISS (ZARYA)             
1 25544U 98067A   22280.26194374  .00012863  00000+0  23470-3 0  9998
2 25544  51.6419 141.3317 0002925 262.4726 249.0414 15.49790116362564
AEROCUBE 12A            
1 43556U 18046C   22279.45195200  .00045350  00000+0  99542-3 0  9998
2 43556  51.6369   1.2263 0006916  67.6501 292.5218 15.43566231236439
AEROCUBE 12B            
1 43557U 18046D   22279.49413808  .00032363  00000+0  78838-3 0  9995
2 43557  51.6388   7.4216 0007187  66.9589 293.2153 15.40597999236300
LEMUR-2-VU              
1 43558U 18046E   22279.43993187  .00094719  00000+0  13746-2 0  9992
2 43558  51.6367 336.1600 0007656  63.6520 296.5256 15.55010243236765
LEMUR-2-ALEXANDER       
1 43559U 18046F   22279.42386456  .00150026  00000+0  19099-2 0  9998
2 43559  51.6380 333.0923 0006259  66.9596 293.2056 15.58309550236589
LEMUR-2-YUASA           
1 43560U 18046G   22279.62571667  .00134296  00000+0  18004-2 0  9998
2 43560  51.6387 335.1674 0005663  73.1730 286.9883 15.56994505236790
LEMUR-2-TOMHENDERSON    
1 43561U 18046H   22279.47124685  .00089223  00000+0  14152-2 0  9995
2 43561  51.6395 340.8373 0006077  75.1540 285.0123 15.52603355236265
ICS-EF (ISS DEB)        
1 45265U 98067RJ  22279.82455246  .00061561  00000+0  53257-3 0  9993
2 45265  51.6343 107.9201 0004791 249.4851 110.5632 15.68571069149088
RED-EYE 2 (MERLOT)      
1 45800U 98067RM  22279.94665546  .00175553  00000+0  70041-3 0  9994
2 45800  51.6354  89.9718 0004786 265.9659  94.0798 15.85546153131197
RED-EYE 3 (CABERNET)    
1 45809U 98067RN  22279.76153083  .00174354  00000+0  69958-3 0  9994
2 45809  51.6367  91.0020 0005020 263.3302  96.7131 15.85430535130149
ISS DEB                 
1 47853U 98067RZ  22279.86167409  .00017799  00000+0  25984-3 0  9993
2 47853  51.6406 134.5634 0002101  73.8365 286.2858 15.55737069 89243
MMSATS-1                
1 47976U 98067SJ  22280.09602109  .00051839  00000+0  52723-3 0  9991
2 47976  51.6389 122.2464 0001216 138.2573   7.3378 15.64633388 87704
CSS (TIANHE)            
1 48274U 21035A   22280.12941514  .00029254  00000+0  33711-3 0  9996
2 48274  41.4729 256.8455 0001868  17.8002  87.4330 15.61308011 82270
ISS DEB                 
1 48833U 98067SK  22279.81089350  .00174000  00000+0  95675-3 0  9998
2 48833  51.6285 113.7895 0002792 236.2826 123.7909 15.78677307 76654
RAMSAT                  
1 48850U 98067SL  22279.73106793  .01323422  11662-2  13226-2 0  9994
2 48850  51.6245  99.6015 0008791 274.6835  85.3175 16.10649512 74948
ISS (NAUKA)             
1 49044U 21066A   22279.80077199  .00042618  00000+0  75664-3 0  9990
2 49044  51.6389 143.6151 0003347 256.1325 200.6974 15.49773199362494
FREGAT DEB              
1 49271U 11037PF  22279.71838104  .00027377  00000+0  64153-1 0  9994
2 49271  51.7118 290.0075 1072815 270.5469  77.2768 11.97025705 60457
1998-067TD              
1 51441U 98067TD  22279.83809378  .00242504  00000+0  12975-2 0  9995
2 51441  51.6284 122.2465 0007046 265.0158  95.0038 15.79056777 39651
PATCOOL                 
1 51442U 98067TE  22279.79144459  .00184989  00000+0  10113-2 0  9997
2 51442  51.6323 121.9081 0006069 264.8796  95.1513 15.78755198 39612
LIGHT-1                 
1 51509U 98067TG  22279.85721080  .00101611  00000+0  84657-3 0  9995
2 51509  51.6374 127.7016 0008717 267.8404  92.1595 15.69245968 38328
PROGRESS-MS 19          
1 51660U 22014A   22279.80077199  .00042618  00000+0  75664-3 0  9991
2 51660  51.6389 143.6151 0003347 256.1325 200.6974 15.49773199362491
IHI-SAT                 
1 52147U 98067TJ  22279.84308572  .00241502  00000+0  17656-2 0  9998
2 52147  51.6320 131.3083 0004807 257.6091 102.4369 15.71926620 30722
KITSUNE                 
1 52148U 98067TK  22280.05900369  .00050483  00000+0  59937-3 0  9991
2 52148  51.6395 134.7800 0002246 296.6141 197.4761 15.60666840 30636
CREW DRAGON 4           
1 52318U 22042A   22279.80077199  .00042618  00000+0  75664-3 0  9993
2 52318  51.6389 143.6151 0003347 256.1325 200.6974 15.49773199362492
TIANZHOU-4              
1 52509U 22050A   22279.69310517  .00031319  00000+0  36084-3 0  9994
2 52509  41.4731 259.5059 0001604  23.0595 146.6189 15.61286872 82206
PROGRESS-MS 20          
1 52795U 22059A   22279.80077199  .00042618  00000+0  75664-3 0  9990
2 52795  51.6389 143.6151 0003347 256.1325 200.6974 15.49773199362491
SHENZHOU 14             
1 52797U 22060A   22279.69310517  .00031319  00000+0  36084-3 0  9994
2 52797  41.4731 259.5059 0001604  23.0595 146.6189 15.61286872 82205
ISS DEB                 
1 52952U 98067TP  22279.86838809  .00160087  00000+0  17645-2 0  9991
2 52952  51.6388 139.7883 0003502 259.1759 100.8841 15.62056814 14930
